OKEAN-3                 
1 21397U 91039A   25310.75393495  .00006179  00000+0  44731-3 0  9994
2 21397  82.5153  95.8670 0015240  32.7066 327.5101 15.03745896846554
COSMOS 2151             
1 21422U 91042A   25310.92452920  .00002869  00000+0  23132-3 0  9999
2 21422  82.4993 202.0072 0014007 110.6205 249.6522 14.99489269844791
SL-14 R/B               
1 21423U 91042B   25310.51781828  .00000609  00000+0  74370-4 0  9998
2 21423  82.4927 335.6948 0015529 287.5569  72.3949 14.81689026834833
ERS-1                   
1 21574U 91050A   25310.51904496  .00000483  00000+0  16966-3 0  9998
2 21574  98.7926 320.6640 0031529 205.9625 153.9982 14.39321693798015
ARIANE 40 R/B           
1 21610U 91050F   25310.58548640  .00000549  00000+0  17725-3 0  9998
2 21610  98.2218   2.3120 0004375  90.1052 270.0640 14.42765433801249
INTERCOSMOS 25          
1 21819U 91086A   25310.72033500  .00001748  00000+0  33947-3 0  9994
2 21819  82.6093  24.3458 1488640  22.0279 343.8454 12.11571369481796
SL-8 R/B                
1 21876U 92008B   25310.55849229  .00000143  00000+0  13075-3 0  9994
2 21876  82.9293 359.3577 0036003 117.7569  42.1218 13.75947895692481
SL-8 R/B                
1 21938U 92020B   25310.75122278  .00000062  00000+0  49223-4 0  9992
2 21938  82.9302 245.0397 0027669 282.0480  87.4453 13.75520385684236
USA 81                  
1 21949U 92023A   25310.70674033  .00000289  00000+0  99852-4 0  9997
2 21949  85.0116 202.3514 0002743  81.2923 278.8581 14.32306754 77183
COSMOS 2219             
1 22219U 92076A   25310.64760467  .00000292  00000+0  17802-3 0  9994
2 22219  71.0602 275.2763 0017259  21.2634 338.9202 14.14062516700989
SL-16 R/B               
1 22220U 92076B   25310.79855512  .00000259  00000+0  15316-3 0  9999
2 22220  70.9991  87.2373 0015102 280.7329 228.0020 14.16833334704422
COSMOS 2221             
1 22236U 92080A   25310.69077790  .00003155  00000+0  28197-3 0  9993
2 22236  82.5073  36.8177 0013315 242.8647 117.1217 14.95543144762409
