CCSDS_OMM_VERS = 2.0
CREATION_DATE  = 
ORIGINATOR     = 

OBJECT_NAME    = OKEAN-3
OBJECT_ID      = 1991-039A
CENTER_NAME    = EARTH
REF_FRAME      = TEME
TIME_SYSTEM    = UTC
MEAN_ELEMENT_THEORY = SGP/SGP4

EPOCH          = 2025-11-06T18:05:39.979680
MEAN_MOTION    = 15.03745896
ECCENTRICITY   = .00152403
INCLINATION    = 82.5153
RA_OF_ASC_NODE = 95.8670
ARG_OF_PERICENTER = 32.7066
MEAN_ANOMALY   = 327.5101

EPHEMERIS_TYPE = 0
CLASSIFICATION_TYPE = U
NORAD_CAT_ID   = 21397
ELEMENT_SET_NO = 999
REV_AT_EPOCH   = 84655
BSTAR          = .44731116E-3
MEAN_MOTION_DOT = .6179E-4
MEAN_MOTION_DDOT = 0

CCSDS_OMM_VERS = 2.0
CREATION_DATE  = 
ORIGINATOR     = 

OBJECT_NAME    = COSMOS 2151
OBJECT_ID      = 1991-042A
CENTER_NAME    = EARTH
REF_FRAME      = TEME
TIME_SYSTEM    = UTC
MEAN_ELEMENT_THEORY = SGP/SGP4

EPOCH          = 2025-11-06T22:11:19.322880
MEAN_MOTION    = 14.99489269
ECCENTRICITY   = .0014007
INCLINATION    = 82.4993
RA_OF_ASC_NODE = 202.0072
ARG_OF_PERICENTER = 110.6205
MEAN_ANOMALY   = 249.6522

EPHEMERIS_TYPE = 0
CLASSIFICATION_TYPE = U
NORAD_CAT_ID   = 21422
ELEMENT_SET_NO = 999
REV_AT_EPOCH   = 84479
BSTAR          = .23132235E-3
MEAN_MOTION_DOT = .2869E-4
MEAN_MOTION_DDOT = 0

CCSDS_OMM_VERS = 2.0
CREATION_DATE  = 
ORIGINATOR     = 

OBJECT_NAME    = SL-14 R/B
OBJECT_ID      = 1991-042B
CENTER_NAME    = EARTH
REF_FRAME      = TEME
TIME_SYSTEM    = UTC
MEAN_ELEMENT_THEORY = SGP/SGP4

EPOCH          = 2025-11-06T12:25:39.499392
MEAN_MOTION    = 14.81689026
ECCENTRICITY   = .00155293
INCLINATION    = 82.4927
RA_OF_ASC_NODE = 335.6948
ARG_OF_PERICENTER = 287.5569
MEAN_ANOMALY   = 72.3949

EPHEMERIS_TYPE = 0
CLASSIFICATION_TYPE = U
NORAD_CAT_ID   = 21423
ELEMENT_SET_NO = 999
REV_AT_EPOCH   = 83483
BSTAR          = .74369963E-4
MEAN_MOTION_DOT = .609E-5
MEAN_MOTION_DDOT = 0

CCSDS_OMM_VERS = 2.0
CREATION_DATE  = 
ORIGINATOR     = 

OBJECT_NAME    = ERS-1
OBJECT_ID      = 1991-050A
CENTER_NAME    = EARTH
REF_FRAME      = TEME
TIME_SYSTEM    = UTC
MEAN_ELEMENT_THEORY = SGP/SGP4

EPOCH          = 2025-11-06T12:27:25.484544
MEAN_MOTION    = 14.39321693
ECCENTRICITY   = .00315297
INCLINATION    = 98.7926
RA_OF_ASC_NODE = 320.6640
ARG_OF_PERICENTER = 205.9625
MEAN_ANOMALY   = 153.9982

EPHEMERIS_TYPE = 0
CLASSIFICATION_TYPE = U
NORAD_CAT_ID   = 21574
ELEMENT_SET_NO = 999
REV_AT_EPOCH   = 79801
BSTAR          = .16966279E-3
MEAN_MOTION_DOT = .483E-5
MEAN_MOTION_DDOT = 0

CCSDS_OMM_VERS = 2.0
CREATION_DATE  = 
ORIGINATOR     = 

OBJECT_NAME    = ARIANE 40 R/B
OBJECT_ID      = 1991-050F
CENTER_NAME    = EARTH
REF_FRAME      = TEME
TIME_SYSTEM    = UTC
MEAN_ELEMENT_THEORY = SGP/SGP4

EPOCH          = 2025-11-06T14:03:06.024960
MEAN_MOTION    = 14.42765433
ECCENTRICITY   = .00043757
INCLINATION    = 98.2218
RA_OF_ASC_NODE = 2.3120
ARG_OF_PERICENTER = 90.1052
MEAN_ANOMALY   = 270.0640

EPHEMERIS_TYPE = 0
CLASSIFICATION_TYPE = U
NORAD_CAT_ID   = 21610
ELEMENT_SET_NO = 999
REV_AT_EPOCH   = 80124
BSTAR          = .17725182E-3
MEAN_MOTION_DOT = .549E-5
MEAN_MOTION_DDOT = 0

CCSDS_OMM_VERS = 2.0
CREATION_DATE  = 
ORIGINATOR     = 

OBJECT_NAME    = INTERCOSMOS 25
OBJECT_ID      = 1991-086A
CENTER_NAME    = EARTH
REF_FRAME      = TEME
TIME_SYSTEM    = UTC
MEAN_ELEMENT_THEORY = SGP/SGP4

EPOCH          = 2025-11-06T17:17:16.944000
MEAN_MOTION    = 12.11571369
ECCENTRICITY   = .14886408
INCLINATION    = 82.6093
RA_OF_ASC_NODE = 24.3458
ARG_OF_PERICENTER = 22.0279
MEAN_ANOMALY   = 343.8454

EPHEMERIS_TYPE = 0
CLASSIFICATION_TYPE = U
NORAD_CAT_ID   = 21819
ELEMENT_SET_NO = 999
REV_AT_EPOCH   = 48179
BSTAR          = .33947093E-3
MEAN_MOTION_DOT = .1748E-4
MEAN_MOTION_DDOT = 0

CCSDS_OMM_VERS = 2.0
CREATION_DATE  = 
ORIGINATOR     = 

OBJECT_NAME    = SL-8 R/B
OBJECT_ID      = 1992-008B
CENTER_NAME    = EARTH
REF_FRAME      = TEME
TIME_SYSTEM    = UTC
MEAN_ELEMENT_THEORY = SGP/SGP4

EPOCH          = 2025-11-06T13:24:13.733856
MEAN_MOTION    = 13.75947895
ECCENTRICITY   = .00360037
INCLINATION    = 82.9293
RA_OF_ASC_NODE = 359.3577
ARG_OF_PERICENTER = 117.7569
MEAN_ANOMALY   = 42.1218

EPHEMERIS_TYPE = 0
CLASSIFICATION_TYPE = U
NORAD_CAT_ID   = 21876
ELEMENT_SET_NO = 999
REV_AT_EPOCH   = 69248
BSTAR          = .13075066E-3
MEAN_MOTION_DOT = .143E-5
MEAN_MOTION_DDOT = 0

CCSDS_OMM_VERS = 2.0
CREATION_DATE  = 
ORIGINATOR     = 

OBJECT_NAME    = SL-8 R/B
OBJECT_ID      = 1992-020B
CENTER_NAME    = EARTH
REF_FRAME      = TEME
TIME_SYSTEM    = UTC
MEAN_ELEMENT_THEORY = SGP/SGP4

EPOCH          = 2025-11-06T18:01:45.648192
MEAN_MOTION    = 13.75520385
ECCENTRICITY   = .00276693
INCLINATION    = 82.9302
RA_OF_ASC_NODE = 245.0397
ARG_OF_PERICENTER = 282.0480
MEAN_ANOMALY   = 87.4453

EPHEMERIS_TYPE = 0
CLASSIFICATION_TYPE = U
NORAD_CAT_ID   = 21938
ELEMENT_SET_NO = 999
REV_AT_EPOCH   = 68423
BSTAR          = .49223415E-4
MEAN_MOTION_DOT = .62E-6
MEAN_MOTION_DDOT = 0

CCSDS_OMM_VERS = 2.0
CREATION_DATE  = 
ORIGINATOR     = 

OBJECT_NAME    = USA 81
OBJECT_ID      = 1992-023A
CENTER_NAME    = EARTH
REF_FRAME      = TEME
TIME_SYSTEM    = UTC
MEAN_ELEMENT_THEORY = SGP/SGP4

EPOCH          = 2025-11-06T16:57:42.364512
MEAN_MOTION    = 14.32306754
ECCENTRICITY   = .00027436
INCLINATION    = 85.0116
RA_OF_ASC_NODE = 202.3514
ARG_OF_PERICENTER = 81.2923
MEAN_ANOMALY   = 278.8581

EPHEMERIS_TYPE = 0
CLASSIFICATION_TYPE = U
NORAD_CAT_ID   = 21949
ELEMENT_SET_NO = 999
REV_AT_EPOCH   = 7718
BSTAR          = .99852284E-4
MEAN_MOTION_DOT = .289E-5
MEAN_MOTION_DDOT = 0

CCSDS_OMM_VERS = 2.0
CREATION_DATE  = 
ORIGINATOR     = 

OBJECT_NAME    = COSMOS 2219
OBJECT_ID      = 1992-076A
CENTER_NAME    = EARTH
REF_FRAME      = TEME
TIME_SYSTEM    = UTC
MEAN_ELEMENT_THEORY = SGP/SGP4

EPOCH          = 2025-11-06T15:32:33.043488
MEAN_MOTION    = 14.14062516
ECCENTRICITY   = .00172592
INCLINATION    = 71.0602
RA_OF_ASC_NODE = 275.2763
ARG_OF_PERICENTER = 21.2634
MEAN_ANOMALY   = 338.9202

EPHEMERIS_TYPE = 0
CLASSIFICATION_TYPE = U
NORAD_CAT_ID   = 22219
ELEMENT_SET_NO = 999
REV_AT_EPOCH   = 70098
BSTAR          = .17802395E-3
MEAN_MOTION_DOT = .292E-5
MEAN_MOTION_DDOT = 0

CCSDS_OMM_VERS = 2.0
CREATION_DATE  = 
ORIGINATOR     = 

OBJECT_NAME    = SL-16 R/B
OBJECT_ID      = 1992-076B
CENTER_NAME    = EARTH
REF_FRAME      = TEME
TIME_SYSTEM    = UTC
MEAN_ELEMENT_THEORY = SGP/SGP4

EPOCH          = 2025-11-06T19:09:55.162368
MEAN_MOTION    = 14.16833334
ECCENTRICITY   = .00151025
INCLINATION    = 70.9991
RA_OF_ASC_NODE = 87.2373
ARG_OF_PERICENTER = 280.7329
MEAN_ANOMALY   = 228.0020

EPHEMERIS_TYPE = 0
CLASSIFICATION_TYPE = U
NORAD_CAT_ID   = 22220
ELEMENT_SET_NO = 999
REV_AT_EPOCH   = 70442
BSTAR          = .15316125E-3
MEAN_MOTION_DOT = .259E-5
MEAN_MOTION_DDOT = 0

CCSDS_OMM_VERS = 2.0
CREATION_DATE  = 
ORIGINATOR     = 

OBJECT_NAME    = COSMOS 2221
OBJECT_ID      = 1992-080A
CENTER_NAME    = EARTH
REF_FRAME      = TEME
TIME_SYSTEM    = UTC
MEAN_ELEMENT_THEORY = SGP/SGP4

EPOCH          = 2025-11-06T16:34:43.210560
MEAN_MOTION    = 14.95543144
ECCENTRICITY   = .00133153
INCLINATION    = 82.5073
RA_OF_ASC_NODE = 36.8177
ARG_OF_PERICENTER = 242.8647
MEAN_ANOMALY   = 117.1217

EPHEMERIS_TYPE = 0
CLASSIFICATION_TYPE = U
NORAD_CAT_ID   = 22236
ELEMENT_SET_NO = 999
REV_AT_EPOCH   = 76240
BSTAR          = .28196695E-3
MEAN_MOTION_DOT = .3155E-4
MEAN_MOTION_DDOT = 0

